Country,State,Name,Latitude,Longitude,DistanceFromSource,ArrivalDay,ArrivalHour,ArrivalMin,TravelTimeHours,TravelTimeMin,MaxWaveDay,MaxWaveHour,MaxWaveMin,MaxWaveHeight
JAPAN,MIYAGI,"Miyagi Prefecture, Tohoku Region",38.92053,141.58233,98,,,,,,,,,5.23
JAPAN,MIYAGI,"Miyagi Prefecture, Tohoku Region",38.11133,140.92789,128,,,,,,,,,5.25
JAPAN,MIYAGI,"Miyagi Prefecture, Tohoku Region",37.96881,140.90536,133,,,,,,,,,5.26
JAPAN,MIYAGI,"Miyagi Prefecture, Tohoku Region",38.43081,141.24503,99,,,,,,,,,1.8
JAPAN,MIYAGI,"Miyagi Prefecture, Tohoku Region",38.42547,141.36269,89,,,,,,,,,1.82
JAPAN,MIYAGI,"Miyagi Prefecture, Tohoku Region",38.43831,141.24428,100,,,,,,,,,1.85
JAPAN,MIYAGI,"Miyagi Prefecture, Tohoku Region",38.04372,140.88795,133,,,,,,,,,1.85
JAPAN,MIYAGI,"Miyagi Prefecture, Tohoku Region",38.42744,141.35083,90,,,,,,,,,1.88
JAPAN,MIYAGI,"Miyagi Prefecture, Tohoku Region",38.12358,140.89525,131,,,,,,,,,1.89
JAPAN,MIYAGI,"Miyagi Prefecture, Tohoku Region",38.42472,141.23631,100,,,,,,,,,2.56
JAPAN,MIYAGI,"Miyagi Prefecture, Tohoku Region",38.42044,141.23403,100,,,,,,,,,2.58
JAPAN,MIYAGI,"Miyagi Prefecture, Tohoku Region",38.41644,141.21186,102,,,,,,,,,2.59
JAPAN,MIYAGI,"Miyagi Prefecture, Tohoku Region",38.22511,140.96544,123,,,,,,,,,2.6
JAPAN,MIYAGI,"Miyagi Prefecture, Tohoku Region",38.16669,140.93156,127,,,,,,,,,2.62
JAPAN,MIYAGI,"Miyagi Prefecture, Tohoku Region",38.24916,140.98892,121,,,,,,,,,2.65
JAPAN,MIYAGI,"Miyagi Prefecture, Tohoku Region",38.419,141.21486,102,,,,,,,,,2.68
JAPAN,MIYAGI,"Miyagi Prefecture, Tohoku Region",38.12053,140.90219,130,,,,,,,,,2.69
JAPAN,MIYAGI,"Miyagi Prefecture, Tohoku Region",38.42383,141.31063,94,,,,,,,,,2.7
JAPAN,MIYAGI,"Miyagi Prefecture, Tohoku Region",38.32852,141.1555,106,,,,,,,,,7.48
JAPAN,MIYAGI,"Miyagi Prefecture, Tohoku Region",38.90708,141.57664,97,,,,,,,,,4.91
JAPAN,MIYAGI,"Miyagi Prefecture, Tohoku Region",38.3347,141.1641,106,,,,,,,,,7.02
JAPAN,MIYAGI,"Miyagi Prefecture, Tohoku Region",38.41464,141.32339,92,,,,,,,,,5.27
JAPAN,MIYAGI,"Miyagi Prefecture, Tohoku Region",38.89017,141.57769,96,,,,,,,,,5.28
JAPAN,MIYAGI,"Miyagi Prefecture, Tohoku Region",38.22392,140.98447,122,,,,,,,,,5.3
JAPAN,MIYAGI,"Miyagi Prefecture, Tohoku Region",38.27192,140.99817,120,,,,,,,,,5.3
JAPAN,MIYAGI,"Miyagi Prefecture, Tohoku Region",38.13778,140.93097,127,,,,,,,,,5.31
JAPAN,MIYAGI,"Miyagi Prefecture, Tohoku Region",38.26167,140.99367,120,,,,,,,,,5.33
JAPAN,MIYAGI,"Miyagi Prefecture, Tohoku Region",37.92472,140.89594,136,,,,,,,,,5.35
JAPAN,MIYAGI,"Miyagi Prefecture, Tohoku Region",38.30639,141.41867,83,,,,,,,,,5.38
JAPAN,MIYAGI,"Miyagi Prefecture, Tohoku Region",38.12478,140.93583,127,,,,,,,,,5.39
JAPAN,MIYAGI,"Miyagi Prefecture, Tohoku Region",38.90767,141.57094,97,,,,,,,,,5.42
JAPAN,MIYAGI,"Miyagi Prefecture, Tohoku Region",37.94533,140.89683,135,,,,,,,,,6.08
JAPAN,MIYAGI,"Miyagi Prefecture, Tohoku Region",37.98797,140.90061,133,,,,,,,,,6.12
JAPAN,MIYAGI,"Miyagi Prefecture, Tohoku Region",38.29636,141.424,83,,,,,,,,,6.12
JAPAN,MIYAGI,"Miyagi Prefecture, Tohoku Region",38.24428,140.96586,123,,,,,,,,,2.36
JAPAN,MIYAGI,"Miyagi Prefecture, Tohoku Region",38.31778,141.01936,118,,,,,,,,,2.36
JAPAN,MIYAGI,"Miyagi Prefecture, Tohoku Region",38.41419,141.37875,88,,,,,,,,,2.36
JAPAN,MIYAGI,"Miyagi Prefecture, Tohoku Region",38.55197,141.40906,89,,,,,,,,,2.36
JAPAN,MIYAGI,"Miyagi Prefecture, Tohoku Region",38.17939,140.93667,126,,,,,,,,,2.37
JAPAN,MIYAGI,"Miyagi Prefecture, Tohoku Region",38.36953,141.06222,115,,,,,,,,,2.41
JAPAN,MIYAGI,"Miyagi Prefecture, Tohoku Region",38.40578,141.15656,107,,,,,,,,,2.41
JAPAN,MIYAGI,"Miyagi Prefecture, Tohoku Region",37.99172,140.88836,134,,,,,,,,,2.43
JAPAN,MIYAGI,"Miyagi Prefecture, Tohoku Region",38.42394,141.36469,89,,,,,,,,,2.44
JAPAN,MIYAGI,"Miyagi Prefecture, Tohoku Region",38.12547,140.91031,129,,,,,,,,,2.44
JAPAN,MIYAGI,"Miyagi Prefecture, Tohoku Region",38.14408,140.93347,127,,,,,,,,,3.42
JAPAN,MIYAGI,"Miyagi Prefecture, Tohoku Region",37.96714,140.89019,135,,,,,,,,,3.48
JAPAN,MIYAGI,"Miyagi Prefecture, Tohoku Region",38.91261,141.57974,97,,,,,,,,,6.34
JAPAN,MIYAGI,"Miyagi Prefecture, Tohoku Region",38.32002,141.01783,118,,,,,,,,,2.67
JAPAN,MIYAGI,"Miyagi Prefecture, Tohoku Region",37.96929,140.8824,135,,,,,,,,,2.93
JAPAN,MIYAGI,"Miyagi Prefecture, Tohoku Region",38.29097,140.98437,121,,,,,,,,,3.06
JAPAN,MIYAGI,"Miyagi Prefecture, Tohoku Region",38.26767,140.97356,122,,,,,,,,,3.1
JAPAN,MIYAGI,"Miyagi Prefecture, Tohoku Region",38.29098,141.04633,116,,,,,,,,,3.23
JAPAN,MIYAGI,"Miyagi Prefecture, Tohoku Region",38.25579,140.96319,123,,,,,,,,,3.28
JAPAN,MIYAGI,"Miyagi Prefecture, Tohoku Region",38.51844,141.46606,83,,,,,,,,,18.48
JAPAN,MIYAGI,"Miyagi Prefecture, Tohoku Region",38.44058,141.45239,82,,,,,,,,,23.24
JAPAN,MIYAGI,"Miyagi Prefecture, Tohoku Region",38.24125,140.98614,121,,,,,,,,,4.56
JAPAN,MIYAGI,"Miyagi Prefecture, Tohoku Region",38.60475,141.50644,83,,,,,,,,,4.57
JAPAN,MIYAGI,"Miyagi Prefecture, Tohoku Region",38.84461,141.58236,92,,,,,,,,,6.21
JAPAN,MIYAGI,"Miyagi Prefecture, Tohoku Region",38.35352,141.1571,106,,,,,,,,,6.21
JAPAN,MIYAGI,"Miyagi Prefecture, Tohoku Region",38.38761,141.19236,103,,,,,,,,,6.23
JAPAN,MIYAGI,"Miyagi Prefecture, Tohoku Region",38.91075,141.58828,97,,,,,,,,,6.24
JAPAN,MIYAGI,"Miyagi Prefecture, Tohoku Region",38.04503,140.91633,130,,,,,,,,,6.24
JAPAN,MIYAGI,"Miyagi Prefecture, Tohoku Region",38.41297,141.32006,93,,,,,,,,,6.26
JAPAN,MIYAGI,"Miyagi Prefecture, Tohoku Region",38.21897,140.96008,124,,,,,,,,,3.99
JAPAN,MIYAGI,"Miyagi Prefecture, Tohoku Region",38.28478,140.99947,120,,,,,,,,,3.99
JAPAN,MIYAGI,"Miyagi Prefecture, Tohoku Region",37.96767,140.89114,135,,,,,,,,,4
JAPAN,MIYAGI,"Miyagi Prefecture, Tohoku Region",38.28828,141.03789,117,,,,,,,,,4.01
JAPAN,MIYAGI,"Miyagi Prefecture, Tohoku Region",38.22522,140.96925,123,,,,,,,,,4.01
JAPAN,MIYAGI,"Miyagi Prefecture, Tohoku Region",38.83881,141.58922,91,,,,,,,,,4.01
JAPAN,MIYAGI,"Miyagi Prefecture, Tohoku Region",38.24294,140.98703,121,,,,,,,,,4.01
JAPAN,MIYAGI,"Miyagi Prefecture, Tohoku Region",38.91128,141.57903,97,,,,,,,,,4.03
JAPAN,MIYAGI,"Miyagi Prefecture, Tohoku Region",38.19875,140.94931,125,,,,,,,,,4.03
JAPAN,MIYAGI,"Miyagi Prefecture, Tohoku Region",38.22881,140.96567,123,,,,,,,,,4.04
JAPAN,MIYAGI,"Miyagi Prefecture, Tohoku Region",38.36958,141.13972,108,,,,,,,,,4.04
JAPAN,MIYAGI,"Miyagi Prefecture, Tohoku Region",38.17778,140.92489,127,,,,,,,,,4.06
JAPAN,MIYAGI,"Miyagi Prefecture, Tohoku Region",38.36903,141.13914,108,,,,,,,,,4.06
JAPAN,MIYAGI,"Miyagi Prefecture, Tohoku Region",38.13531,140.93933,127,,,,,,,,,6.34
JAPAN,MIYAGI,"Miyagi Prefecture, Tohoku Region",38.88944,141.58536,95,,,,,,,,,6.37
JAPAN,MIYAGI,"Miyagi Prefecture, Tohoku Region",37.99144,140.9045,133,,,,,,,,,6.37
JAPAN,MIYAGI,"Miyagi Prefecture, Tohoku Region",38.17714,140.95109,125,,,,,,,,,6.4
JAPAN,MIYAGI,"Miyagi Prefecture, Tohoku Region",38.35131,141.44161,81,,,,,,,,,6.44
JAPAN,MIYAGI,"Miyagi Prefecture, Tohoku Region",38.27783,141.02367,118,,,,,,,,,6.45
JAPAN,MIYAGI,"Miyagi Prefecture, Tohoku Region",38.37792,141.15811,106,,,,,,,,,6.45
JAPAN,MIYAGI,"Miyagi Prefecture, Tohoku Region",38.86867,141.57814,94,,,,,,,,,6.48
JAPAN,MIYAGI,"Miyagi Prefecture, Tohoku Region",38.26286,141.01908,118,,,,,,,,,6.48
JAPAN,MIYAGI,"Miyagi Prefecture, Tohoku Region",38.42044,141.21414,102,,,,,,,,,2.93
JAPAN,MIYAGI,"Miyagi Prefecture, Tohoku Region",38.41467,141.2295,101,,,,,,,,,2.93
JAPAN,MIYAGI,"Miyagi Prefecture, Tohoku Region",38.37725,141.09975,111,,,,,,,,,2.46
JAPAN,MIYAGI,"Miyagi Prefecture, Tohoku Region",38.42031,141.21972,102,,,,,,,,,2.48
JAPAN,MIYAGI,"Miyagi Prefecture, Tohoku Region",38.44826,141.29439,96,,,,,,,,,2.48
JAPAN,MIYAGI,"Miyagi Prefecture, Tohoku Region",38.09692,140.89933,131,,,,,,,,,2.49
JAPAN,MIYAGI,"Miyagi Prefecture, Tohoku Region",38.22255,140.98569,121,,,,,,,,,2.5
JAPAN,MIYAGI,"Miyagi Prefecture, Tohoku Region",38.2491,140.98363,121,,,,,,,,,2.5
JAPAN,MIYAGI,"Miyagi Prefecture, Tohoku Region",38.34064,141.14347,107,,,,,,,,,2.5
JAPAN,MIYAGI,"Miyagi Prefecture, Tohoku Region",38.41972,141.20986,102,,,,,,,,,2.51
JAPAN,MIYAGI,"Miyagi Prefecture, Tohoku Region",38.09886,140.90694,130,,,,,,,,,2.51
JAPAN,MIYAGI,"Miyagi Prefecture, Tohoku Region",38.33858,141.03717,117,,,,,,,,,2.52
JAPAN,MIYAGI,"Miyagi Prefecture, Tohoku Region",38.8939,141.56411,97,,,,,,,,,3.35
JAPAN,MIYAGI,"Miyagi Prefecture, Tohoku Region",38.28825,140.99944,120,,,,,,,,,3.42
JAPAN,MIYAGI,"Miyagi Prefecture, Tohoku Region",38.08294,140.92352,129,,,,,,,,,3.5
JAPAN,MIYAGI,"Miyagi Prefecture, Tohoku Region",38.229,140.95619,124,,,,,,,,,3.51
JAPAN,MIYAGI,"Miyagi Prefecture, Tohoku Region",38.28725,141.00392,120,,,,,,,,,3.51
JAPAN,MIYAGI,"Miyagi Prefecture, Tohoku Region",38.42836,141.26644,98,,,,,,,,,3.55
JAPAN,MIYAGI,"Miyagi Prefecture, Tohoku Region",38.29544,141.01689,118,,,,,,,,,3.59
JAPAN,MIYAGI,"Miyagi Prefecture, Tohoku Region",38.29008,141.06003,115,,,,,,,,,3.66
JAPAN,MIYAGI,"Miyagi Prefecture, Tohoku Region",37.96883,140.90014,134,,,,,,,,,3.68
JAPAN,MIYAGI,"Miyagi Prefecture, Tohoku Region",38.26103,140.98575,121,,,,,,,,,3.7
JAPAN,MIYAGI,"Miyagi Prefecture, Tohoku Region",38.01006,140.89461,133,,,,,,,,,2.46
JAPAN,MIYAGI,"Miyagi Prefecture, Tohoku Region",38.15406,140.89625,130,,,,,,,,,2.06
JAPAN,MIYAGI,"Miyagi Prefecture, Tohoku Region",38.27428,141.02147,118,,,,,,,,,6.95
JAPAN,MIYAGI,"Miyagi Prefecture, Tohoku Region",37.9505,140.89561,135,,,,,,,,,6.96
JAPAN,MIYAGI,"Miyagi Prefecture, Tohoku Region",37.93428,140.90153,135,,,,,,,,,6.97
JAPAN,MIYAGI,"Miyagi Prefecture, Tohoku Region",38.63483,141.51036,84,,,,,,,,,6.98
JAPAN,MIYAGI,"Miyagi Prefecture, Tohoku Region",38.88619,141.58403,95,,,,,,,,,6.99
JAPAN,MIYAGI,"Miyagi Prefecture, Tohoku Region",38.41678,141.30058,94,,,,,,,,,7
JAPAN,MIYAGI,"Miyagi Prefecture, Tohoku Region",37.95914,140.91194,133,,,,,,,,,7.01
JAPAN,MIYAGI,"Miyagi Prefecture, Tohoku Region",38.90622,141.58814,96,,,,,,,,,7.02
JAPAN,MIYAGI,"Miyagi Prefecture, Tohoku Region",38.17189,140.95192,125,,,,,,,,,7.04
JAPAN,MIYAGI,"Miyagi Prefecture, Tohoku Region",38.36292,141.43264,82,,,,,,,,,7.09
JAPAN,MIYAGI,"Miyagi Prefecture, Tohoku Region",38.85975,141.57597,93,,,,,,,,,7.15
JAPAN,MIYAGI,"Miyagi Prefecture, Tohoku Region",38.25806,141.00022,120,,,,,,,,,7.26
JAPAN,MIYAGI,"Miyagi Prefecture, Tohoku Region",38.33433,141.09053,112,,,,,,,,,7.28
JAPAN,MIYAGI,"Miyagi Prefecture, Tohoku Region",38.13169,140.93389,127,,,,,,,,,6.64
JAPAN,MIYAGI,"Miyagi Prefecture, Tohoku Region",38.85614,141.57289,93,,,,,,,,,6.66
JAPAN,MIYAGI,"Miyagi Prefecture, Tohoku Region",38.30469,141.08342,113,,,,,,,,,6.74
JAPAN,MIYAGI,"Miyagi Prefecture, Tohoku Region",38.27511,141.02336,118,,,,,,,,,6.76
JAPAN,MIYAGI,"Miyagi Prefecture, Tohoku Region",38.0398,140.91636,131,,,,,,,,,6.81
JAPAN,MIYAGI,"Miyagi Prefecture, Tohoku Region",38.51911,141.41486,87,,,,,,,,,6.87
JAPAN,MIYAGI,"Miyagi Prefecture, Tohoku Region",38.88414,141.57756,95,,,,,,,,,6.92
JAPAN,MIYAGI,"Miyagi Prefecture, Tohoku Region",38.85453,141.57858,93,,,,,,,,,6.95
JAPAN,MIYAGI,"Miyagi Prefecture, Tohoku Region",38.88908,141.58142,95,,,,,,,,,6.98
JAPAN,MIYAGI,"Miyagi Prefecture, Tohoku Region",38.52294,141.40381,88,,,,,,,,,7.13
JAPAN,MIYAGI,"Miyagi Prefecture, Tohoku Region",38.21622,140.947,125,,,,,,,,,2.54
JAPAN,MIYAGI,"Miyagi Prefecture, Tohoku Region",38.42156,141.21081,102,,,,,,,,,2.55
JAPAN,MIYAGI,"Miyagi Prefecture, Tohoku Region",38.09022,140.90022,131,,,,,,,,,2.55
JAPAN,MIYAGI,"Miyagi Prefecture, Tohoku Region",38.11336,140.90914,130,,,,,,,,,2.55
JAPAN,MIYAGI,"Miyagi Prefecture, Tohoku Region",38.12047,140.90514,130,,,,,,,,,2.56
JAPAN,MIYAGI,"Miyagi Prefecture, Tohoku Region",38.15858,140.90981,129,,,,,,,,,2.56
JAPAN,MIYAGI,"Miyagi Prefecture, Tohoku Region",38.10614,140.90303,130,,,,,,,,,2.58
JAPAN,MIYAGI,"Miyagi Prefecture, Tohoku Region",38.41139,141.36811,89,,,,,,,,,2.58
JAPAN,MIYAGI,"Miyagi Prefecture, Tohoku Region",38.16761,140.92017,128,,,,,,,,,2.59
JAPAN,MIYAGI,"Miyagi Prefecture, Tohoku Region",38.16903,140.92111,128,,,,,,,,,2.59
JAPAN,MIYAGI,"Miyagi Prefecture, Tohoku Region",38.41933,141.36633,89,,,,,,,,,2.59
JAPAN,MIYAGI,"Miyagi Prefecture, Tohoku Region",38.42497,141.32308,93,,,,,,,,,2.6
JAPAN,MIYAGI,"Miyagi Prefecture, Tohoku Region",38.33499,141.47346,79,,,,,,,,,7.32
JAPAN,MIYAGI,"Miyagi Prefecture, Tohoku Region",38.54588,141.42549,87,,,,,,,,,7.44
JAPAN,MIYAGI,"Miyagi Prefecture, Tohoku Region",38.28969,141.06544,114,,,,,,,,,9.33
JAPAN,MIYAGI,"Miyagi Prefecture, Tohoku Region",38.38592,141.10817,111,,,,,,,,,2.72
JAPAN,MIYAGI,"Miyagi Prefecture, Tohoku Region",38.36383,141.06081,115,,,,,,,,,2.74
JAPAN,MIYAGI,"Miyagi Prefecture, Tohoku Region",38.42528,141.32244,93,,,,,,,,,2.75
JAPAN,MIYAGI,"Miyagi Prefecture, Tohoku Region",38.04042,140.90611,131,,,,,,,,,5.46
JAPAN,MIYAGI,"Miyagi Prefecture, Tohoku Region",38.29386,141.01617,118,,,,,,,,,2.53
JAPAN,MIYAGI,"Miyagi Prefecture, Tohoku Region",38.38531,141.1595,106,,,,,,,,,2.55
JAPAN,MIYAGI,"Miyagi Prefecture, Tohoku Region",38.31647,141.03178,117,,,,,,,,,2.55
JAPAN,MIYAGI,"Miyagi Prefecture, Tohoku Region",38.34989,141.05155,115,,,,,,,,,6.33
JAPAN,MIYAGI,"Miyagi Prefecture, Tohoku Region",38.24908,140.9888,121,,,,,,,,,2.6
JAPAN,MIYAGI,"Miyagi Prefecture, Tohoku Region",38.24308,140.96747,123,,,,,,,,,2.6
JAPAN,MIYAGI,"Miyagi Prefecture, Tohoku Region",38.73792,141.53069,88,,,,,,,,,12.68
JAPAN,MIYAGI,"Miyagi Prefecture, Tohoku Region",38.91516,141.65015,93,,,,,,,,,13.35
JAPAN,MIYAGI,"Miyagi Prefecture, Tohoku Region",38.35383,141.44453,81,,,,,,,,,4.42
JAPAN,MIYAGI,"Miyagi Prefecture, Tohoku Region",38.03883,140.91626,131,,,,,,,,,5.5
JAPAN,MIYAGI,"Miyagi Prefecture, Tohoku Region",38.90242,141.58872,96,,,,,,,,,5.66
JAPAN,MIYAGI,"Miyagi Prefecture, Tohoku Region",38.37217,141.45628,80,,,,,,,,,5.96
JAPAN,MIYAGI,"Miyagi Prefecture, Tohoku Region",38.27464,141.01092,119,,,,,,,,,7.28
JAPAN,MIYAGI,"Miyagi Prefecture, Tohoku Region",38.25517,140.99025,121,,,,,,,,,4.16
JAPAN,MIYAGI,"Miyagi Prefecture, Tohoku Region",38.36942,141.14861,107,,,,,,,,,4.16
JAPAN,MIYAGI,"Miyagi Prefecture, Tohoku Region",37.98622,140.89292,134,,,,,,,,,4.17
JAPAN,MIYAGI,"Miyagi Prefecture, Tohoku Region",38.28428,141.01442,119,,,,,,,,,3.57
JAPAN,MIYAGI,"Miyagi Prefecture, Tohoku Region",38.42111,141.35464,90,,,,,,,,,3.58
JAPAN,MIYAGI,"Miyagi Prefecture, Tohoku Region",38.14597,140.92533,128,,,,,,,,,3.6
JAPAN,MIYAGI,"Miyagi Prefecture, Tohoku Region",38.32131,141.46889,79,,,,,,,,,7.48
JAPAN,MIYAGI,"Miyagi Prefecture, Tohoku Region",37.92228,140.89094,136,,,,,,,,,7.52
JAPAN,MIYAGI,"Miyagi Prefecture, Tohoku Region",38.32225,141.46967,79,,,,,,,,,7.55
JAPAN,MIYAGI,"Miyagi Prefecture, Tohoku Region",38.908,141.57631,97,,,,,,,,,7.56
JAPAN,MIYAGI,"Miyagi Prefecture, Tohoku Region",38.86864,141.57458,94,,,,,,,,,7.6
JAPAN,MIYAGI,"Miyagi Prefecture, Tohoku Region",38.90519,141.57542,97,,,,,,,,,7.64
JAPAN,MIYAGI,"Miyagi Prefecture, Tohoku Region",38.86897,141.57167,94,,,,,,,,,7.69
JAPAN,MIYAGI,"Miyagi Prefecture, Tohoku Region",38.16706,140.956,125,,,,,,,,,7.72
JAPAN,MIYAGI,"Miyagi Prefecture, Tohoku Region",37.92147,140.89836,136,,,,,,,,,5.52
JAPAN,MIYAGI,"Miyagi Prefecture, Tohoku Region",38,140.87969,135,,,,,,,,,2.62
JAPAN,MIYAGI,"Miyagi Prefecture, Tohoku Region",38.16494,140.91153,129,,,,,,,,,2.63
JAPAN,MIYAGI,"Miyagi Prefecture, Tohoku Region",38.04678,140.90094,132,,,,,,,,,2.64
JAPAN,MIYAGI,"Miyagi Prefecture, Tohoku Region",38.43428,141.31919,93,,,,,,,,,2.65
JAPAN,MIYAGI,"Miyagi Prefecture, Tohoku Region",38.11256,140.90597,130,,,,,,,,,2.65
JAPAN,MIYAGI,"Miyagi Prefecture, Tohoku Region",38.22414,140.9465,125,,,,,,,,,2.65
JAPAN,MIYAGI,"Miyagi Prefecture, Tohoku Region",38.11672,140.90525,130,,,,,,,,,2.65
JAPAN,MIYAGI,"Miyagi Prefecture, Tohoku Region",38.41967,141.21694,102,,,,,,,,,2.67
JAPAN,MIYAGI,"Miyagi Prefecture, Tohoku Region",38.23481,140.96333,123,,,,,,,,,2.68
JAPAN,MIYAGI,"Miyagi Prefecture, Tohoku Region",38.5285,141.42431,87,,,,,,,,,2.69
JAPAN,MIYAGI,"Miyagi Prefecture, Tohoku Region",38.16028,140.92172,128,,,,,,,,,2.7
JAPAN,MIYAGI,"Miyagi Prefecture, Tohoku Region",38.41983,141.2255,101,,,,,,,,,2.71
JAPAN,MIYAGI,"Miyagi Prefecture, Tohoku Region",38.307,141.03439,117,,,,,,,,,2.72
JAPAN,MIYAGI,"Miyagi Prefecture, Tohoku Region",38.31314,141.039,116,,,,,,,,,2.72
JAPAN,MIYAGI,"Miyagi Prefecture, Tohoku Region",38.02289,140.89531,133,,,,,,,,,2.73
JAPAN,MIYAGI,"Miyagi Prefecture, Tohoku Region",38.2065,140.94394,125,,,,,,,,,2.74
JAPAN,MIYAGI,"Miyagi Prefecture, Tohoku Region",37.96794,140.90661,133,,,,,,,,,4.03
JAPAN,MIYAGI,"Miyagi Prefecture, Tohoku Region",37.98972,140.90053,133,,,,,,,,,4.04
JAPAN,MIYAGI,"Miyagi Prefecture, Tohoku Region",38.19714,140.966,123,,,,,,,,,17.5
JAPAN,MIYAGI,"Miyagi Prefecture, Tohoku Region",37.97093,140.91186,133,,,,,,,,,8.6
JAPAN,MIYAGI,"Miyagi Prefecture, Tohoku Region",38.86436,141.61394,91,,,,,,,,,8.62
JAPAN,MIYAGI,"Miyagi Prefecture, Tohoku Region",38.29658,141.51014,75,,,,,,,,,8.71
JAPAN,MIYAGI,"Miyagi Prefecture, Tohoku Region",38.37453,141.45876,80,,,,,,,,,8.75
JAPAN,MIYAGI,"Miyagi Prefecture, Tohoku Region",38.84619,141.61383,90,,,,,,,,,8.82
JAPAN,MIYAGI,"Miyagi Prefecture, Tohoku Region",38.90667,141.56806,97,,,,,,,,,4.1
JAPAN,MIYAGI,"Miyagi Prefecture, Tohoku Region",38.45353,141.30047,95,,,,,,,,,0.82
JAPAN,MIYAGI,"Miyagi Prefecture, Tohoku Region",38.4145,141.38808,87,,,,,,,,,1.93
JAPAN,MIYAGI,"Miyagi Prefecture, Tohoku Region",38.06969,140.88653,132,,,,,,,,,3.04
JAPAN,MIYAGI,"Miyagi Prefecture, Tohoku Region",38.31967,141.47014,79,,,,,,,,,7.88
JAPAN,MIYAGI,"Miyagi Prefecture, Tohoku Region",38.85811,141.60831,91,,,,,,,,,7.91
JAPAN,MIYAGI,"Miyagi Prefecture, Tohoku Region",38.38072,141.43958,82,,,,,,,,,8.02
JAPAN,MIYAGI,"Miyagi Prefecture, Tohoku Region",38.10239,140.93042,128,,,,,,,,,8.05
JAPAN,MIYAGI,"Miyagi Prefecture, Tohoku Region",38.51478,141.49067,81,,,,,,,,,8.12
JAPAN,MIYAGI,"Miyagi Prefecture, Tohoku Region",37.95877,140.91478,133,,,,,,,,,8.2
JAPAN,MIYAGI,"Miyagi Prefecture, Tohoku Region",38.34744,141.0425,116,,,,,,,,,2.74
JAPAN,MIYAGI,"Miyagi Prefecture, Tohoku Region",37.923,140.89419,136,,,,,,,,,7.3
JAPAN,MIYAGI,"Miyagi Prefecture, Tohoku Region",38.0008,140.91302,132,,,,,,,,,7.3
JAPAN,MIYAGI,"Miyagi Prefecture, Tohoku Region",38.44875,141.44358,83,,,,,,,,,22.28
JAPAN,MIYAGI,"Miyagi Prefecture, Tohoku Region",38.74575,141.52708,89,,,,,,,,,22.93
JAPAN,MIYAGI,"Miyagi Prefecture, Tohoku Region",38.40042,141.59553,69,,,,,,,,,23.64
JAPAN,MIYAGI,"Miyagi Prefecture, Tohoku Region",38.78439,141.49897,93,,,,,,,,,11.53
JAPAN,MIYAGI,"Miyagi Prefecture, Tohoku Region",38.45664,141.51983,76,,,,,,,,,11.57
JAPAN,MIYAGI,"Miyagi Prefecture, Tohoku Region",37.91506,140.90939,135,,,,,,,,,11.62
JAPAN,MIYAGI,"Miyagi Prefecture, Tohoku Region",38.21044,140.95086,125,,,,,,,,,2.94
JAPAN,MIYAGI,"Miyagi Prefecture, Tohoku Region",38.37303,141.14631,107,,,,,,,,,2.96
JAPAN,MIYAGI,"Miyagi Prefecture, Tohoku Region",38.14575,140.91664,128,,,,,,,,,2.96
JAPAN,MIYAGI,"Miyagi Prefecture, Tohoku Region",38.20197,140.93275,126,,,,,,,,,3
JAPAN,MIYAGI,"Miyagi Prefecture, Tohoku Region",38.20406,140.93469,126,,,,,,,,,3.02
JAPAN,MIYAGI,"Miyagi Prefecture, Tohoku Region",38.41625,141.225,101,,,,,,,,,3.03
JAPAN,MIYAGI,"Miyagi Prefecture, Tohoku Region",38.44675,141.29124,96,,,,,,,,,3.04
JAPAN,MIYAGI,"Miyagi Prefecture, Tohoku Region",38.13389,140.91667,129,,,,,,,,,3.06
JAPAN,MIYAGI,"Miyagi Prefecture, Tohoku Region",38.12117,140.90056,130,,,,,,,,,3.06
JAPAN,MIYAGI,"Miyagi Prefecture, Tohoku Region",38.10497,140.91167,130,,,,,,,,,3.06
JAPAN,MIYAGI,"Miyagi Prefecture, Tohoku Region",38.13469,140.90914,129,,,,,,,,,3.08
JAPAN,MIYAGI,"Miyagi Prefecture, Tohoku Region",38.22117,140.95114,124,,,,,,,,,3.73
JAPAN,MIYAGI,"Miyagi Prefecture, Tohoku Region",38.32156,141.02603,118,,,,,,,,,3.73
JAPAN,MIYAGI,"Miyagi Prefecture, Tohoku Region",38.148,140.92269,128,,,,,,,,,3.75
JAPAN,MIYAGI,"Miyagi Prefecture, Tohoku Region",38.42919,141.30561,94,,,,,,,,,3.77
JAPAN,MIYAGI,"Miyagi Prefecture, Tohoku Region",38.90242,141.62414,94,,,,,,,,,3.77
JAPAN,MIYAGI,"Miyagi Prefecture, Tohoku Region",37.97444,140.89514,134,,,,,,,,,3.86
JAPAN,MIYAGI,"Miyagi Prefecture, Tohoku Region",38.28344,140.99272,121,,,,,,,,,3.87
JAPAN,MIYAGI,"Miyagi Prefecture, Tohoku Region",38.41728,141.29753,95,,,,,,,,,6.4
JAPAN,MIYAGI,"Miyagi Prefecture, Tohoku Region",38.34772,141.46358,80,,,,,,,,,7.04
JAPAN,MIYAGI,"Miyagi Prefecture, Tohoku Region",38.08311,140.92488,129,,,,,,,,,8.5
JAPAN,MIYAGI,"Miyagi Prefecture, Tohoku Region",38.17456,140.95686,124,,,,,,,,,8.87
JAPAN,MIYAGI,"Miyagi Prefecture, Tohoku Region",38.39986,141.4825,79,,,,,,,,,10.89
JAPAN,MIYAGI,"Miyagi Prefecture, Tohoku Region",38.69486,141.50358,88,,,,,,,,,17.98
JAPAN,MIYAGI,"Miyagi Prefecture, Tohoku Region",38.76056,141.50478,91,,,,,,,,,28.19
JAPAN,MIYAGI,"Miyagi Prefecture, Tohoku Region",38.06745,140.92207,129,,,,,,,,,2.6
JAPAN,MIYAGI,"Miyagi Prefecture, Tohoku Region",38.05125,140.92185,130,,,,,,,,,3.2
JAPAN,MIYAGI,"Miyagi Prefecture, Tohoku Region",38.9329,141.63365,96,,,,,,,,,14.57
JAPAN,MIYAGI,"Miyagi Prefecture, Tohoku Region",38.64653,141.46536,88,,,,,,,,,14.59
JAPAN,MIYAGI,"Miyagi Prefecture, Tohoku Region",37.92794,140.89789,135,,,,,,,,,11.78
JAPAN,MIYAGI,"Miyagi Prefecture, Tohoku Region",38.90175,141.63186,93,,,,,,,,,11.84
JAPAN,MIYAGI,"Miyagi Prefecture, Tohoku Region",37.9145,140.90503,135,,,,,,,,,12.06
JAPAN,MIYAGI,"Miyagi Prefecture, Tohoku Region",38.28345,141.06021,115,,,,,,,,,12.21
JAPAN,MIYAGI,"Miyagi Prefecture, Tohoku Region",38.40633,141.49178,78,,,,,,,,,12.38
JAPAN,MIYAGI,"Miyagi Prefecture, Tohoku Region",38.81208,141.57522,90,,,,,,,,,12.44
JAPAN,MIYAGI,"Miyagi Prefecture, Tohoku Region",38.44219,141.47822,80,,,,,,,,,12.58
JAPAN,MIYAGI,"Miyagi Prefecture, Tohoku Region",38.40786,141.50008,77,,,,,,,,,12.72
JAPAN,MIYAGI,"Miyagi Prefecture, Tohoku Region",38.44608,141.23889,100,,,,,,,,,1.21
JAPAN,MIYAGI,"Miyagi Prefecture, Tohoku Region",38.42889,141.24161,100,,,,,,,,,1.24
JAPAN,MIYAGI,"Miyagi Prefecture, Tohoku Region",38.12192,140.8975,130,,,,,,,,,1.24
JAPAN,MIYAGI,"Miyagi Prefecture, Tohoku Region",38.54506,141.40203,89,,,,,,,,,1.24
JAPAN,MIYAGI,"Miyagi Prefecture, Tohoku Region",38.44292,141.32367,93,,,,,,,,,1.3
JAPAN,MIYAGI,"Miyagi Prefecture, Tohoku Region",38.24973,141.00259,120,,,,,,,,,1.3
JAPAN,MIYAGI,"Miyagi Prefecture, Tohoku Region",38.44075,141.26556,98,,,,,,,,,1.41
JAPAN,MIYAGI,"Miyagi Prefecture, Tohoku Region",38.4375,141.38739,87,,,,,,,,,1.43
JAPAN,MIYAGI,"Miyagi Prefecture, Tohoku Region",38.43183,141.26356,98,,,,,,,,,1.47
JAPAN,MIYAGI,"Miyagi Prefecture, Tohoku Region",38.64089,141.48536,86,,,,,,,,,12.75
JAPAN,MIYAGI,"Miyagi Prefecture, Tohoku Region",38.46567,141.47418,81,,,,,,,,,12.89
JAPAN,MIYAGI,"Miyagi Prefecture, Tohoku Region",38.86206,141.66983,88,,,,,,,,,13.04
JAPAN,MIYAGI,"Miyagi Prefecture, Tohoku Region",38.72081,141.51497,88,,,,,,,,,13.1
JAPAN,MIYAGI,"Miyagi Prefecture, Tohoku Region",38.44603,141.444,83,,,,,,,,,13.36
JAPAN,MIYAGI,"Miyagi Prefecture, Tohoku Region",38.86317,141.60794,92,,,,,,,,,13.43
JAPAN,MIYAGI,"Miyagi Prefecture, Tohoku Region",38.67561,141.44539,91,,,,,,,,,13.62
JAPAN,MIYAGI,"Miyagi Prefecture, Tohoku Region",38.26075,141.015,119,,,,,,,,,13.87
JAPAN,MIYAGI,"Miyagi Prefecture, Tohoku Region",38.88881,141.59231,95,,,,,,,,,3.91
JAPAN,MIYAGI,"Miyagi Prefecture, Tohoku Region",38.20775,140.94939,125,,,,,,,,,3.94
JAPAN,MIYAGI,"Miyagi Prefecture, Tohoku Region",38.11328,140.93008,128,,,,,,,,,3.95
JAPAN,MIYAGI,"Miyagi Prefecture, Tohoku Region",38.03831,140.89908,132,,,,,,,,,3.99
JAPAN,MIYAGI,"Miyagi Prefecture, Tohoku Region",38.08265,140.92401,129,,,,,,,,,4
JAPAN,MIYAGI,"Miyagi Prefecture, Tohoku Region",38.96275,141.63161,98,,,,,,,,,6.57
JAPAN,MIYAGI,"Miyagi Prefecture, Tohoku Region",38.27431,141.01283,119,,,,,,,,,6.6
JAPAN,MIYAGI,"Miyagi Prefecture, Tohoku Region",38.30606,141.41933,83,,,,,,,,,6.63
JAPAN,MIYAGI,"Miyagi Prefecture, Tohoku Region",38.25761,141.00267,120,,,,,,,,,6.66
JAPAN,MIYAGI,"Miyagi Prefecture, Tohoku Region",38.41954,141.30615,94,,,,,,,,,6.71
JAPAN,MIYAGI,"Miyagi Prefecture, Tohoku Region",38.19103,140.95525,124,,,,,,,,,4.06
JAPAN,MIYAGI,"Miyagi Prefecture, Tohoku Region",38.04803,140.90975,131,,,,,,,,,4.07
JAPAN,MIYAGI,"Miyagi Prefecture, Tohoku Region",38.40161,141.19328,104,,,,,,,,,4.08
JAPAN,MIYAGI,"Miyagi Prefecture, Tohoku Region",38.45492,141.51944,76,,,,,,,,,29.97
JAPAN,MIYAGI,"Miyagi Prefecture, Tohoku Region",38.75469,141.52761,89,,,,,,,,,36.29
JAPAN,MIYAGI,"Miyagi Prefecture, Tohoku Region",38.45098,141.31552,94,,,,,,,,,0.2
JAPAN,MIYAGI,"Miyagi Prefecture, Tohoku Region",38.37594,141.06804,114,,,,,,,,,1.11
JAPAN,MIYAGI,"Miyagi Prefecture, Tohoku Region",38.43362,141.38283,88,,,,,,,,,1.28
JAPAN,MIYAGI,"Miyagi Prefecture, Tohoku Region",38.26493,140.97381,122,,,,,,,,,3.18
JAPAN,MIYAGI,"Miyagi Prefecture, Tohoku Region",38.42915,141.30437,94,,,,,,,,,3.88
JAPAN,MIYAGI,"Miyagi Prefecture, Tohoku Region",38.3438,141.15265,107,,,,,,,,,5.74
JAPAN,MIYAGI,"Miyagi Prefecture, Tohoku Region",38.36481,141.15561,106,,,,,,,,,6.3
JAPAN,MIYAGI,"Miyagi Prefecture, Tohoku Region",38.90242,141.57492,97,,,,,,,,,6.53
JAPAN,MIYAGI,"Miyagi Prefecture, Tohoku Region",37.92825,140.91258,134,,,,,,,,,7.09
JAPAN,MIYAGI,"Miyagi Prefecture, Tohoku Region",38.29003,141.04449,116,,,,,,,,,3.9
JAPAN,MIYAGI,"Miyagi Prefecture, Tohoku Region",38.11933,140.89492,131,,,,,,,,,1.56
JAPAN,MIYAGI,"Miyagi Prefecture, Tohoku Region",38.33556,141.11767,110,,,,,,,,,4.2
JAPAN,MIYAGI,"Miyagi Prefecture, Tohoku Region",37.99428,140.89331,134,,,,,,,,,4.2
JAPAN,MIYAGI,"Miyagi Prefecture, Tohoku Region",38.42058,141.2675,97,,,,,,,,,4.2
JAPAN,MIYAGI,"Miyagi Prefecture, Tohoku Region",38.36139,141.13811,108,,,,,,,,,4.23
JAPAN,MIYAGI,"Miyagi Prefecture, Tohoku Region",38.31864,141.02644,118,,,,,,,,,4.23
JAPAN,MIYAGI,"Miyagi Prefecture, Tohoku Region",38.4225,141.33658,91,,,,,,,,,4.23
JAPAN,MIYAGI,"Miyagi Prefecture, Tohoku Region",38.21394,140.97361,123,,,,,,,,,4.24
JAPAN,MIYAGI,"Miyagi Prefecture, Tohoku Region",38.22872,140.97175,123,,,,,,,,,4.26
JAPAN,MIYAGI,"Miyagi Prefecture, Tohoku Region",38.40219,141.19628,103,,,,,,,,,4.26
JAPAN,MIYAGI,"Miyagi Prefecture, Tohoku Region",38.15361,140.93731,126,,,,,,,,,4.3
JAPAN,MIYAGI,"Miyagi Prefecture, Tohoku Region",37.97544,140.90325,133,,,,,,,,,4.31
JAPAN,MIYAGI,"Miyagi Prefecture, Tohoku Region",38.71147,141.54408,86,,,,,,,,,14.37
JAPAN,MIYAGI,"Miyagi Prefecture, Tohoku Region",38.81425,141.56708,91,,,,,,,,,14.56
JAPAN,MIYAGI,"Miyagi Prefecture, Tohoku Region",38.69336,141.50692,87,,,,,,,,,14.67
JAPAN,MIYAGI,"Miyagi Prefecture, Tohoku Region",38.90517,141.57483,97,,,,,,,,,4.52
JAPAN,MIYAGI,"Miyagi Prefecture, Tohoku Region",38.43911,141.43912,83,,,,,,,,,
JAPAN,MIYAGI,"Miyagi Prefecture, Tohoku Region",38.23415,140.95054,124,,,,,,,,,2.14
JAPAN,MIYAGI,"Miyagi Prefecture, Tohoku Region",38.21764,140.93722,126,,,,,,,,,2.3
JAPAN,MIYAGI,"Miyagi Prefecture, Tohoku Region",38.69587,141.5011,88,,,,,,,,,14.65
JAPAN,MIYAGI,"Miyagi Prefecture, Tohoku Region",38.7335,141.54297,87,,,,,,,,,16.01
JAPAN,MIYAGI,"Miyagi Prefecture, Tohoku Region",38.16333,140.91233,128,,,,,,,,,2.4
JAPAN,MIYAGI,"Miyagi Prefecture, Tohoku Region",38.43733,141.39042,87,,,,,,,,,0.97
JAPAN,MIYAGI,"Miyagi Prefecture, Tohoku Region",38.54181,141.38736,90,,,,,,,,,1.2
JAPAN,MIYAGI,"Miyagi Prefecture, Tohoku Region",38.3192,141.03115,117,,,,,,,,,1.47
JAPAN,MIYAGI,"Miyagi Prefecture, Tohoku Region",38.45625,141.44558,83,,,,,,,,,15.1
JAPAN,MIYAGI,"Miyagi Prefecture, Tohoku Region",38.46556,141.47414,81,,,,,,,,,15.22
JAPAN,MIYAGI,"Miyagi Prefecture, Tohoku Region",38.60686,141.49097,84,,,,,,,,,15.25
JAPAN,MIYAGI,"Miyagi Prefecture, Tohoku Region",38.08508,140.91078,130,,,,,,,,,2.74
JAPAN,MIYAGI,"Miyagi Prefecture, Tohoku Region",38.08625,140.90269,131,,,,,,,,,2.75
JAPAN,MIYAGI,"Miyagi Prefecture, Tohoku Region",37.97906,140.89414,134,,,,,,,,,2.75
JAPAN,MIYAGI,"Miyagi Prefecture, Tohoku Region",38.89153,141.57075,96,,,,,,,,,4.1
JAPAN,MIYAGI,"Miyagi Prefecture, Tohoku Region",38.31972,141.02944,117,,,,,,,,,4.1
JAPAN,MIYAGI,"Miyagi Prefecture, Tohoku Region",38.17167,140.946,125,,,,,,,,,4.11
JAPAN,MIYAGI,"Miyagi Prefecture, Tohoku Region",38.28981,141.03047,117,,,,,,,,,4.14
JAPAN,MIYAGI,"Miyagi Prefecture, Tohoku Region",38.06283,140.91056,130,,,,,,,,,4.17
JAPAN,MIYAGI,"Miyagi Prefecture, Tohoku Region",38.8895,141.57572,96,,,,,,,,,4.2
JAPAN,MIYAGI,"Miyagi Prefecture, Tohoku Region",37.96742,140.89958,134,,,,,,,,,4.21
JAPAN,MIYAGI,"Miyagi Prefecture, Tohoku Region",38.32658,141.044,116,,,,,,,,,4.23
JAPAN,MIYAGI,"Miyagi Prefecture, Tohoku Region",38.26242,140.98194,122,,,,,,,,,4.26
JAPAN,MIYAGI,"Miyagi Prefecture, Tohoku Region",38.92828,141.583,98,,,,,,,,,4.26
JAPAN,MIYAGI,"Miyagi Prefecture, Tohoku Region",38.92408,141.58408,98,,,,,,,,,4.32
JAPAN,MIYAGI,"Miyagi Prefecture, Tohoku Region",38.19333,140.94256,125,,,,,,,,,4.35
JAPAN,MIYAGI,"Miyagi Prefecture, Tohoku Region",38.27856,140.99403,120,,,,,,,,,4.43
JAPAN,MIYAGI,"Miyagi Prefecture, Tohoku Region",38.15842,140.93903,126,,,,,,,,,4.46
JAPAN,MIYAGI,"Miyagi Prefecture, Tohoku Region",38.29556,141.01861,118,,,,,,,,,4.48
JAPAN,MIYAGI,"Miyagi Prefecture, Tohoku Region",37.97353,140.89989,134,,,,,,,,,4.51
JAPAN,MIYAGI,"Miyagi Prefecture, Tohoku Region",38.24917,140.98075,122,,,,,,,,,4.54
JAPAN,MIYAGI,"Miyagi Prefecture, Tohoku Region",38.18852,140.92267,127,,,,,,,,,2.09
JAPAN,MIYAGI,"Miyagi Prefecture, Tohoku Region",38.90867,141.64844,93,,,,,,,,,14.74
JAPAN,MIYAGI,"Miyagi Prefecture, Tohoku Region",38.50506,141.48692,81,,,,,,,,,14.78
JAPAN,MIYAGI,"Miyagi Prefecture, Tohoku Region",38.6475,141.43678,90,,,,,,,,,14.89
JAPAN,MIYAGI,"Miyagi Prefecture, Tohoku Region",38.44319,141.44747,82,,,,,,,,,15
JAPAN,MIYAGI,"Miyagi Prefecture, Tohoku Region",38.51003,141.46009,83,,,,,,,,,15.03
JAPAN,MIYAGI,"Miyagi Prefecture, Tohoku Region",38.42953,141.37117,89,,,,,,,,,1.54
JAPAN,MIYAGI,"Miyagi Prefecture, Tohoku Region",38.033,140.88261,134,,,,,,,,,1.55
JAPAN,MIYAGI,"Miyagi Prefecture, Tohoku Region",38.02,140.88092,134,,,,,,,,,1.56
JAPAN,MIYAGI,"Miyagi Prefecture, Tohoku Region",38.05461,140.89953,132,,,,,,,,,1.57
JAPAN,MIYAGI,"Miyagi Prefecture, Tohoku Region",38.32083,141.46922,79,,,,,,,,,8.32
JAPAN,MIYAGI,"Miyagi Prefecture, Tohoku Region",38.25733,141.00908,119,,,,,,,,,8.39
JAPAN,MIYAGI,"Miyagi Prefecture, Tohoku Region",38.41256,141.32408,92,,,,,,,,,8.4
JAPAN,MIYAGI,"Miyagi Prefecture, Tohoku Region",38.25706,140.98853,121,,,,,,,,,4.47
JAPAN,MIYAGI,"Miyagi Prefecture, Tohoku Region",38.42075,141.26325,98,,,,,,,,,4.48
JAPAN,MIYAGI,"Miyagi Prefecture, Tohoku Region",38.51489,141.31003,96,,,,,,,,,4.5
JAPAN,MIYAGI,"Miyagi Prefecture, Tohoku Region",38.42775,141.30859,94,,,,,,,,,4.51
JAPAN,MIYAGI,"Miyagi Prefecture, Tohoku Region",38.41653,141.26642,97,,,,,,,,,4.51
JAPAN,MIYAGI,"Miyagi Prefecture, Tohoku Region",38.8505,141.61308,90,,,,,,,,,4.52
JAPAN,MIYAGI,"Miyagi Prefecture, Tohoku Region",38.28769,140.99928,120,,,,,,,,,4.53
JAPAN,MIYAGI,"Miyagi Prefecture, Tohoku Region",38.44247,141.30203,95,,,,,,,,,1.54
JAPAN,MIYAGI,"Miyagi Prefecture, Tohoku Region",38.44064,141.28342,96,,,,,,,,,1.58
JAPAN,MIYAGI,"Miyagi Prefecture, Tohoku Region",38.43531,141.29403,95,,,,,,,,,1.59
JAPAN,MIYAGI,"Miyagi Prefecture, Tohoku Region",38.439,141.30883,94,,,,,,,,,1.63
JAPAN,MIYAGI,"Miyagi Prefecture, Tohoku Region",38.44833,141.30644,95,,,,,,,,,1.64
JAPAN,MIYAGI,"Miyagi Prefecture, Tohoku Region",38.43569,141.30397,94,,,,,,,,,1.65
JAPAN,MIYAGI,"Miyagi Prefecture, Tohoku Region",38.45475,141.32775,93,,,,,,,,,1.7
JAPAN,MIYAGI,"Miyagi Prefecture, Tohoku Region",38.43461,141.29228,95,,,,,,,,,1.74
JAPAN,MIYAGI,"Miyagi Prefecture, Tohoku Region",38.43106,141.2375,100,,,,,,,,,1.9
JAPAN,MIYAGI,"Miyagi Prefecture, Tohoku Region",38.38747,141.17189,105,,,,,,,,,1.95
JAPAN,MIYAGI,"Miyagi Prefecture, Tohoku Region",38.43753,141.28269,96,,,,,,,,,1.99
JAPAN,MIYAGI,"Miyagi Prefecture, Tohoku Region",38.96383,141.63214,98,,,,,,,,,13.24
JAPAN,MIYAGI,"Miyagi Prefecture, Tohoku Region",38.71731,141.55589,85,,,,,,,,,13.26
JAPAN,MIYAGI,"Miyagi Prefecture, Tohoku Region",38.6434,141.48105,87,,,,,,,,,13.31
JAPAN,MIYAGI,"Miyagi Prefecture, Tohoku Region",38.91761,141.58001,98,,,,,,,,,4.81
JAPAN,MIYAGI,"Miyagi Prefecture, Tohoku Region",38.01839,140.89581,133,,,,,,,,,2.64
JAPAN,MIYAGI,"Miyagi Prefecture, Tohoku Region",38.35611,141.52186,75,,,,,,,,,11.41
JAPAN,MIYAGI,"Miyagi Prefecture, Tohoku Region",38.33522,141.15433,106,,,,,,,,,6.51
JAPAN,MIYAGI,"Miyagi Prefecture, Tohoku Region",38.09978,140.88911,132,,,,,,,,,2.04
JAPAN,MIYAGI,"Miyagi Prefecture, Tohoku Region",38.45806,141.51747,77,,,,,,,,,38.56
JAPAN,MIYAGI,"Miyagi Prefecture, Tohoku Region",38.52281,141.46778,83,,,,,,,,,27.62
JAPAN,MIYAGI,"Miyagi Prefecture, Tohoku Region",38.46394,141.47422,81,,,,,,,,,12.61
JAPAN,MIYAGI,"Miyagi Prefecture, Tohoku Region",37.93225,140.91597,134,,,,,,,,,8.22
JAPAN,MIYAGI,"Miyagi Prefecture, Tohoku Region",38.33217,141.47606,78,,,,,,,,,7.73
JAPAN,MIYAGI,"Miyagi Prefecture, Tohoku Region",38.26549,141.02773,118,,,,,,,,,5.42
JAPAN,MIYAGI,"Miyagi Prefecture, Tohoku Region",38.41294,141.37064,88,,,,,,,,,5.97
JAPAN,MIYAGI,"Miyagi Prefecture, Tohoku Region",38.4201,141.20603,103,,,,,,,,,2.28
JAPAN,MIYAGI,"Miyagi Prefecture, Tohoku Region",38.41408,141.35869,89,,,,,,,,,4.48
JAPAN,MIYAGI,"Miyagi Prefecture, Tohoku Region",38.44175,141.52514,76,,,,,,,,,23.51
JAPAN,MIYAGI,"Miyagi Prefecture, Tohoku Region",38.85528,141.62556,90,,,,,,,,,19.16
JAPAN,MIYAGI,"Miyagi Prefecture, Tohoku Region",38.21858,140.94956,125,,,,,,,,,3.49
JAPAN,MIYAGI,"Miyagi Prefecture, Tohoku Region",38.09283,140.92786,128,,,,,,,,,7.29
JAPAN,MIYAGI,"Miyagi Prefecture, Tohoku Region",38.33641,141.15035,107,,,,,,,,,1.02
JAPAN,MIYAGI,"Miyagi Prefecture, Tohoku Region",38.43943,141.44669,82,,,,,,,,,22.09
JAPAN,MIYAGI,"Miyagi Prefecture, Tohoku Region",38.21771,140.93986,125,,,,,,,,,1.85
JAPAN,MIYAGI,"Miyagi Prefecture, Tohoku Region",38.39125,141.51711,75,,,,,,,,,14.96
JAPAN,MIYAGI,"Miyagi Prefecture, Tohoku Region",38.38558,141.19139,104,,,,,,,,,7.8
JAPAN,MIYAGI,"Miyagi Prefecture, Tohoku Region",38.72375,141.55492,86,,,,,,,,,17.6
JAPAN,MIYAGI,"Miyagi Prefecture, Tohoku Region",38.87517,141.58492,94,,,,,,,,,14.86
JAPAN,MIYAGI,"Miyagi Prefecture, Tohoku Region",38.37572,141.17214,105,,,,,,,,,8.7
JAPAN,MIYAGI,"Miyagi Prefecture, Tohoku Region",38.51706,141.46578,83,,,,,,,,,16.42
JAPAN,MIYAGI,"Miyagi Prefecture, Tohoku Region",38.04028,140.92042,130,,,,,,,,,10.73
JAPAN,MIYAGI,"Miyagi Prefecture, Tohoku Region",38.68806,141.43628,92,,,,,,,,,14.64
JAPAN,MIYAGI,"Miyagi Prefecture, Tohoku Region",37.9545,140.89439,135,,,,,,,,,6.71
JAPAN,MIYAGI,"Miyagi Prefecture, Tohoku Region",38.25556,140.97861,122,,,,,,,,,3.19
JAPAN,MIYAGI,"Miyagi Prefecture, Tohoku Region",38.898,141.56456,97,,,,,,,,,3.26
JAPAN,MIYAGI,"Miyagi Prefecture, Tohoku Region",38.41458,141.33806,91,,,,,,,,,6.91
JAPAN,MIYAGI,"Miyagi Prefecture, Tohoku Region",38.73716,141.54332,87,,,,,,,,,12.71
JAPAN,MIYAGI,"Miyagi Prefecture, Tohoku Region",38.35683,141.15339,107,,,,,,,,,7.22
JAPAN,MIYAGI,"Miyagi Prefecture, Tohoku Region",38.89436,141.56611,97,,,,,,,,,3.37
JAPAN,MIYAGI,"Miyagi Prefecture, Tohoku Region",38.36835,141.13698,108,,,,,,,,,3.49
JAPAN,MIYAGI,"Miyagi Prefecture, Tohoku Region",38.32898,141.16554,105,,,,,,,,,7.79
JAPAN,MIYAGI,"Miyagi Prefecture, Tohoku Region",38.33808,141.10667,111,,,,,,,,,3.01
JAPAN,MIYAGI,"Miyagi Prefecture, Tohoku Region",38.91742,141.58022,98,,,,,,,,,4.02
JAPAN,MIYAGI,"Miyagi Prefecture, Tohoku Region",38.29397,141.42458,83,,,,,,,,,5.85
JAPAN,MIYAGI,"Miyagi Prefecture, Tohoku Region",38.35433,141.44397,81,,,,,,,,,7.44
JAPAN,MIYAGI,"Miyagi Prefecture, Tohoku Region",38.55006,141.40931,89,,,,,,,,,3.77
JAPAN,MIYAGI,"Miyagi Prefecture, Tohoku Region",38.64308,141.44267,90,,,,,,,,,9.59
JAPAN,MIYAGI,"Miyagi Prefecture, Tohoku Region",38.70744,141.51789,87,,,,,,,,,11.13
JAPAN,MIYAGI,"Miyagi Prefecture, Tohoku Region",38.05447,140.91417,130,,,,,,,,,6.58
JAPAN,MIYAGI,"Miyagi Prefecture, Tohoku Region",38.16747,140.95628,125,,,,,,,,,7.8
JAPAN,MIYAGI,"Miyagi Prefecture, Tohoku Region",37.91083,140.91469,135,,,,,,,,,9.17
JAPAN,MIYAGI,"Miyagi Prefecture, Tohoku Region",38.40403,141.3694,88,,,,,,,,,7.95
JAPAN,MIYAGI,"Miyagi Prefecture, Tohoku Region",38.28889,140.99772,120,,,,,,,,,3.94
JAPAN,MIYAGI,"Miyagi Prefecture, Tohoku Region",38.12822,140.935,127,,,,,,,,,4.02
JAPAN,MIYAGI,"Miyagi Prefecture, Tohoku Region",38.67122,141.46083,90,,,,,,,,,12.29
JAPAN,MIYAGI,"Miyagi Prefecture, Tohoku Region",38.51278,141.51411,79,,,,,,,,,14.15
JAPAN,MIYAGI,"Miyagi Prefecture, Tohoku Region",38.04275,140.91964,130,,,,,,,,,9.93
JAPAN,MIYAGI,"Miyagi Prefecture, Tohoku Region",38.69147,141.48681,89,,,,,,,,,12.72
JAPAN,MIYAGI,"Miyagi Prefecture, Tohoku Region",38.23581,140.99111,121,,,,,,,,,16.8
JAPAN,MIYAGI,"Miyagi Prefecture, Tohoku Region",37.93128,140.90442,135,,,,,,,,,8.72
JAPAN,MIYAGI,"Miyagi Prefecture, Tohoku Region",38.87661,141.58878,94,,,,,,,,,9.19
JAPAN,MIYAGI,"Miyagi Prefecture, Tohoku Region",38.83567,141.59069,91,,,,,,,,,4.11
JAPAN,MIYAGI,"Miyagi Prefecture, Tohoku Region",38.25406,140.98942,121,,,,,,,,,4.24
JAPAN,MIYAGI,"Miyagi Prefecture, Tohoku Region",38.40609,141.46818,80,,,,,,,,,15.55
JAPAN,MIYAGI,"Miyagi Prefecture, Tohoku Region",38.69139,141.43097,93,,,,,,,,,16.98
JAPAN,MIYAGI,"Miyagi Prefecture, Tohoku Region",38.19797,140.96433,124,,,,,,,,,18.7
JAPAN,MIYAGI,"Miyagi Prefecture, Tohoku Region",38.42697,141.21808,102,,,,,,,,,2.2
JAPAN,MIYAGI,"Miyagi Prefecture, Tohoku Region",37.98011,140.90547,133,,,,,,,,,6.57
JAPAN,MIYAGI,"Miyagi Prefecture, Tohoku Region",38.30283,141.08367,113,,,,,,,,,4.48
JAPAN,MIYAGI,"Miyagi Prefecture, Tohoku Region",38.24783,140.99264,121,,,,,,,,,4.6
JAPAN,MIYAGI,"Miyagi Prefecture, Tohoku Region",38.75508,141.52617,90,,,,,,,,,19.5
JAPAN,MIYAGI,"Miyagi Prefecture, Tohoku Region",38.17928,140.94289,126,,,,,,,,,3.46
JAPAN,MIYAGI,"Miyagi Prefecture, Tohoku Region",38.03833,140.88669,133,,,,,,,,,0.92
JAPAN,MIYAGI,"Miyagi Prefecture, Tohoku Region",38.44853,141.44092,83,,,,,,,,,
JAPAN,MIYAGI,"Miyagi Prefecture, Tohoku Region",38.33306,141.02777,117,,,,,,,,,1.28
JAPAN,MIYAGI,"Miyagi Prefecture, Tohoku Region",38.04189,140.87883,134,,,,,,,,,0.71
JAPAN,MIYAGI,"Miyagi Prefecture, Tohoku Region",38.404,141.37106,88,,,,,,,,,7.75
JAPAN,MIYAGI,"Miyagi Prefecture, Tohoku Region",38.23942,140.99222,121,,,,,,,,,3.66
JAPAN,MIYAGI,"Miyagi Prefecture, Tohoku Region",38.56783,141.41381,89,,,,,,,,,1.15
JAPAN,MIYAGI,"Miyagi Prefecture, Tohoku Region",38.25021,141.00269,120,,,,,,,,,1.5
JAPAN,MIYAGI,"Miyagi Prefecture, Tohoku Region",38.02647,140.88025,134,,,,,,,,,1.96
JAPAN,MIYAGI,"Miyagi Prefecture, Tohoku Region",38.0517,140.9212,130,,,,,,,,,3.2
JAPAN,MIYAGI,"Miyagi Prefecture, Tohoku Region",38.05707,140.91957,130,,,,,,,,,3.4
JAPAN,MIYAGI,"Miyagi Prefecture, Tohoku Region",38.05185,140.92097,130,,,,,,,,,4.2
JAPAN,MIYAGI,"Miyagi Prefecture, Tohoku Region",38.05182,140.92052,130,,,,,,,,,4.2
JAPAN,MIYAGI,"Miyagi Prefecture, Tohoku Region",37.90064,140.91428,135,,,,,,,,,7.9
JAPAN,MIYAGI,"Miyagi Prefecture, Tohoku Region",38.04922,140.91122,131,,,,,,,,,7.91
JAPAN,MIYAGI,"Miyagi Prefecture, Tohoku Region",38.88297,141.62517,92,,,,,,,,,8.08
JAPAN,MIYAGI,"Miyagi Prefecture, Tohoku Region",38.9,141.62328,94,,,,,,,,,8.26
JAPAN,MIYAGI,"Miyagi Prefecture, Tohoku Region",38.28908,141.06509,114,,,,,,,,,8.27
JAPAN,MIYAGI,"Miyagi Prefecture, Tohoku Region",38.39178,141.20508,102,,,,,,,,,8.3
JAPAN,MIYAGI,"Miyagi Prefecture, Tohoku Region",38.85142,141.57369,93,,,,,,,,,8.33
JAPAN,MIYAGI,"Miyagi Prefecture, Tohoku Region",38.05161,140.91961,130,,,,,,,,,8.39
JAPAN,MIYAGI,"Miyagi Prefecture, Tohoku Region",38.03981,140.87038,134,,,,,,,,,1.36
JAPAN,MIYAGI,"Miyagi Prefecture, Tohoku Region",38.29164,141.06697,114,,,,,,,,,8.4
JAPAN,MIYAGI,"Miyagi Prefecture, Tohoku Region",37.89956,140.92481,134,,,,,,,,,8.4
JAPAN,MIYAGI,"Miyagi Prefecture, Tohoku Region",38.26083,141.01469,119,,,,,,,,,8.43
JAPAN,MIYAGI,"Miyagi Prefecture, Tohoku Region",38.88619,141.60997,93,,,,,,,,,8.45
JAPAN,MIYAGI,"Miyagi Prefecture, Tohoku Region",38.37175,141.16542,106,,,,,,,,,8.5
JAPAN,MIYAGI,"Miyagi Prefecture, Tohoku Region",38.03731,140.91942,130,,,,,,,,,8.54
JAPAN,MIYAGI,"Miyagi Prefecture, Tohoku Region",38.25531,141.00839,119,,,,,,,,,8.56
JAPAN,MIYAGI,"Miyagi Prefecture, Tohoku Region",38.37481,141.16911,105,,,,,,,,,8.6
JAPAN,MIYAGI,"Miyagi Prefecture, Tohoku Region",38.01731,140.91278,131,,,,,,,,,8.62
JAPAN,MIYAGI,"Miyagi Prefecture, Tohoku Region",38.79156,141.49742,94,,,,,,,,,8.67
JAPAN,MIYAGI,"Miyagi Prefecture, Tohoku Region",38.38033,141.18058,104,,,,,,,,,8.8
JAPAN,MIYAGI,"Miyagi Prefecture, Tohoku Region",38.88358,141.62242,92,,,,,,,,,8.88
JAPAN,MIYAGI,"Miyagi Prefecture, Tohoku Region",38.90147,141.63103,93,,,,,,,,,8.92
JAPAN,MIYAGI,"Miyagi Prefecture, Tohoku Region",38.17281,140.96261,124,,,,,,,,,9.03
JAPAN,MIYAGI,"Miyagi Prefecture, Tohoku Region",38.90797,141.57967,97,,,,,,,,,9.05
JAPAN,MIYAGI,"Miyagi Prefecture, Tohoku Region",37.97011,140.91264,133,,,,,,,,,9.13
JAPAN,MIYAGI,"Miyagi Prefecture, Tohoku Region",38.37742,141.44833,81,,,,,,,,,9.18
JAPAN,MIYAGI,"Miyagi Prefecture, Tohoku Region",38.42744,141.31406,93,,,,,,,,,5.11
JAPAN,MIYAGI,"Miyagi Prefecture, Tohoku Region",38.0305,140.90797,132,,,,,,,,,5.21
JAPAN,MIYAGI,"Miyagi Prefecture, Tohoku Region",38.36406,141.15544,106,,,,,,,,,5.46
JAPAN,MIYAGI,"Miyagi Prefecture, Tohoku Region",38.42239,141.3095,94,,,,,,,,,5.47
JAPAN,MIYAGI,"Miyagi Prefecture, Tohoku Region",38.41853,141.27478,97,,,,,,,,,5.9
JAPAN,MIYAGI,"Miyagi Prefecture, Tohoku Region",37.89483,140.93011,134,,,,,,,,,19.63
JAPAN,MIYAGI,"Miyagi Prefecture, Tohoku Region",38.78312,141.5152,92,,,,,,,,,19.87
JAPAN,MIYAGI,"Miyagi Prefecture, Tohoku Region",38.43905,141.43915,83,,,,,,,,,20.19
JAPAN,MIYAGI,"Miyagi Prefecture, Tohoku Region",38.75603,141.52422,90,,,,,,,,,20.42
JAPAN,MIYAGI,"Miyagi Prefecture, Tohoku Region",38.36818,141.48495,78,,,,,,,,,20.94
JAPAN,MIYAGI,"Miyagi Prefecture, Tohoku Region",38.58525,141.46397,85,,,,,,,,,22.81
JAPAN,MIYAGI,"Miyagi Prefecture, Tohoku Region",38.69986,141.47958,90,,,,,,,,,22.9
JAPAN,MIYAGI,"Miyagi Prefecture, Tohoku Region",38.90561,141.65125,92,,,,,,,,,22.94
JAPAN,MIYAGI,"Miyagi Prefecture, Tohoku Region",38.80256,141.55064,91,,,,,,,,,24.3
JAPAN,MIYAGI,"Miyagi Prefecture, Tohoku Region",38.44064,141.52858,75,,,,,,,,,28.12
JAPAN,MIYAGI,"Miyagi Prefecture, Tohoku Region",38.68044,141.47511,89,,,,,,,,,30.22
JAPAN,MIYAGI,"Miyagi Prefecture, Tohoku Region",38.75233,141.52769,89,,,,,,,,,33.93
JAPAN,MIYAGI,"Miyagi Prefecture, Tohoku Region",38.89419,141.59847,95,,,,,,,,,38.49
JAPAN,MIYAGI,"Miyagi Prefecture, Tohoku Region",38.44983,141.31833,94,,,,,,,,,0.17
JAPAN,MIYAGI,"Miyagi Prefecture, Tohoku Region",38.44934,141.28162,97,,,,,,,,,0.29
JAPAN,MIYAGI,"Miyagi Prefecture, Tohoku Region",38.45426,141.30026,95,,,,,,,,,0.82
JAPAN,MIYAGI,"Miyagi Prefecture, Tohoku Region",38.00383,140.90558,132,,,,,,,,,5.49
JAPAN,MIYAGI,"Miyagi Prefecture, Tohoku Region",38.96703,141.62342,99,,,,,,,,,35.28
JAPAN,MIYAGI,"Miyagi Prefecture, Tohoku Region",38.89592,141.62397,93,,,,,,,,,13.47
JAPAN,MIYAGI,"Miyagi Prefecture, Tohoku Region",38.717,141.53078,87,,,,,,,,,13
JAPAN,MIYAGI,"Miyagi Prefecture, Tohoku Region",37.92842,140.91281,134,,,,,,,,,6.24
JAPAN,MIYAGI,"Miyagi Prefecture, Tohoku Region",38.90811,141.64852,93,,,,,,,,,11.55
JAPAN,MIYAGI,"Miyagi Prefecture, Tohoku Region",38.89519,141.58989,95,,,,,,,,,10.84
JAPAN,MIYAGI,"Miyagi Prefecture, Tohoku Region",38.26144,140.98553,121,,,,,,,,,3.03
JAPAN,MIYAGI,"Miyagi Prefecture, Tohoku Region",38.05586,140.91294,130,,,,,,,,,3.54
JAPAN,MIYAGI,"Miyagi Prefecture, Tohoku Region",38.26033,140.99075,121,,,,,,,,,3.99
JAPAN,MIYAGI,"Miyagi Prefecture, Tohoku Region",38.22253,140.98622,121,,,,,,,,,1.7
JAPAN,MIYAGI,"Miyagi Prefecture, Tohoku Region",38.79483,141.49917,94,,,,,,,,,11.52
JAPAN,MIYAGI,"Miyagi Prefecture, Tohoku Region",38.44044,141.45167,82,,,,,,,,,17.72
JAPAN,MIYAGI,"Miyagi Prefecture, Tohoku Region",38.13517,140.93969,127,,,,,,,,,11.72
JAPAN,MIYAGI,"Miyagi Prefecture, Tohoku Region",38.44286,141.48761,79,,,,,,,,,12.4
JAPAN,MIYAGI,"Miyagi Prefecture, Tohoku Region",38.87671,141.57988,94,,,,,,,,,11.36
JAPAN,MIYAGI,"Miyagi Prefecture, Tohoku Region",38.41433,141.405,85,,,,,,,,,4.55
JAPAN,MIYAGI,"Miyagi Prefecture, Tohoku Region",38.05153,140.92161,130,,,,,,,,,5.38
JAPAN,MIYAGI,"Miyagi Prefecture, Tohoku Region",38.92836,141.62528,96,,,,,,,,,23.41
JAPAN,MIYAGI,"Miyagi Prefecture, Tohoku Region",38.44211,141.29711,95,,,,,,,,,1.37
JAPAN,MIYAGI,"Miyagi Prefecture, Tohoku Region",38.43408,141.29322,95,,,,,,,,,1.79
JAPAN,MIYAGI,"Miyagi Prefecture, Tohoku Region",38.72433,141.54047,87,,,,,,,,,12.97
JAPAN,MIYAGI,"Miyagi Prefecture, Tohoku Region",38.90333,141.64842,92,,,,,,,,,14.15
JAPAN,MIYAGI,"Miyagi Prefecture, Tohoku Region",38.69325,141.50675,87,,,,,,,,,12.69
JAPAN,MIYAGI,"Miyagi Prefecture, Tohoku Region",38.16878,140.95658,125,,,,,,,,,6.3
JAPAN,MIYAGI,"Miyagi Prefecture, Tohoku Region",38.051,140.92158,130,,,,,,,,,6.82
JAPAN,MIYAGI,"Miyagi Prefecture, Tohoku Region",38.88261,141.60894,93,,,,,,,,,7.35
JAPAN,MIYAGI,"Miyagi Prefecture, Tohoku Region",38.37025,141.06239,115,,,,,,,,,2.8
JAPAN,MIYAGI,"Miyagi Prefecture, Tohoku Region",38.42322,141.32361,93,,,,,,,,,4.13
JAPAN,MIYAGI,"Miyagi Prefecture, Tohoku Region",38.56692,141.42881,88,,,,,,,,,14.24
JAPAN,MIYAGI,"Miyagi Prefecture, Tohoku Region",38.71765,141.51924,88,,,,,,,,,15.1
JAPAN,MIYAGI,"Miyagi Prefecture, Tohoku Region",38.22944,140.98467,121,,,,,,,,,9.85
JAPAN,MIYAGI,"Miyagi Prefecture, Tohoku Region",37.93658,140.91169,134,,,,,,,,,9.9
JAPAN,MIYAGI,"Miyagi Prefecture, Tohoku Region",38.21836,140.98506,122,,,,,,,,,9.95
JAPAN,MIYAGI,"Miyagi Prefecture, Tohoku Region",38.28972,141.06346,114,,,,,,,,,10.07
JAPAN,MIYAGI,"Miyagi Prefecture, Tohoku Region",38.39983,141.40146,86,,,,,,,,,10.21
JAPAN,MIYAGI,"Miyagi Prefecture, Tohoku Region",38.33533,141.04708,116,,,,,,,,,2.55
JAPAN,MIYAGI,"Miyagi Prefecture, Tohoku Region",38.42781,141.2265,101,,,,,,,,,2.61
JAPAN,MIYAGI,"Miyagi Prefecture, Tohoku Region",38.42658,141.223,101,,,,,,,,,2.63
JAPAN,MIYAGI,"Miyagi Prefecture, Tohoku Region",38.08969,140.91494,130,,,,,,,,,2.67
JAPAN,MIYAGI,"Miyagi Prefecture, Tohoku Region",38.43194,141.28919,96,,,,,,,,,2.72
JAPAN,MIYAGI,"Miyagi Prefecture, Tohoku Region",38.42681,141.28919,96,,,,,,,,,2.9
JAPAN,MIYAGI,"Miyagi Prefecture, Tohoku Region",38.42622,141.31683,93,,,,,,,,,3.02
JAPAN,MIYAGI,"Miyagi Prefecture, Tohoku Region",38.39747,141.16669,106,,,,,,,,,3.13
JAPAN,MIYAGI,"Miyagi Prefecture, Tohoku Region",38.4235,141.29108,95,,,,,,,,,3.5
JAPAN,MIYAGI,"Miyagi Prefecture, Tohoku Region",38.01522,140.89828,133,,,,,,,,,3.53
JAPAN,MIYAGI,"Miyagi Prefecture, Tohoku Region",38.32317,141.0235,118,,,,,,,,,3.56
JAPAN,MIYAGI,"Miyagi Prefecture, Tohoku Region",38.42453,141.28386,96,,,,,,,,,3.72
JAPAN,MIYAGI,"Miyagi Prefecture, Tohoku Region",38.02594,140.90008,132,,,,,,,,,3.76
JAPAN,MIYAGI,"Miyagi Prefecture, Tohoku Region",38.42317,141.31719,93,,,,,,,,,3.77
JAPAN,MIYAGI,"Miyagi Prefecture, Tohoku Region",38.42433,141.29344,95,,,,,,,,,3.85
JAPAN,MIYAGI,"Miyagi Prefecture, Tohoku Region",38.02589,140.91392,131,,,,,,,,,3.95
JAPAN,MIYAGI,"Miyagi Prefecture, Tohoku Region",38.38631,141.10747,111,,,,,,,,,1.89
JAPAN,MIYAGI,"Miyagi Prefecture, Tohoku Region",38.09869,140.89942,131,,,,,,,,,1.91
JAPAN,MIYAGI,"Miyagi Prefecture, Tohoku Region",38.02519,140.88014,134,,,,,,,,,1.92
JAPAN,MIYAGI,"Miyagi Prefecture, Tohoku Region",38.33747,141.11764,110,,,,,,,,,1.95
JAPAN,MIYAGI,"Miyagi Prefecture, Tohoku Region",38.14869,140.89367,130,,,,,,,,,1.97
JAPAN,MIYAGI,"Miyagi Prefecture, Tohoku Region",38.4738,141.29534,96,,,,,,,,,1.99
JAPAN,MIYAGI,"Miyagi Prefecture, Tohoku Region",37.98203,140.89635,134,,,,,,,,,2
JAPAN,MIYAGI,"Miyagi Prefecture, Tohoku Region",38.12697,140.90372,130,,,,,,,,,2.01
JAPAN,MIYAGI,"Miyagi Prefecture, Tohoku Region",38.42947,141.23731,100,,,,,,,,,2.02
JAPAN,MIYAGI,"Miyagi Prefecture, Tohoku Region",38.4227,141.26949,97,,,,,,,,,5.59
JAPAN,MIYAGI,"Miyagi Prefecture, Tohoku Region",38.18069,140.95708,124,,,,,,,,,5.6
JAPAN,MIYAGI,"Miyagi Prefecture, Tohoku Region",38.89167,141.57456,96,,,,,,,,,5.62
JAPAN,MIYAGI,"Miyagi Prefecture, Tohoku Region",38.92092,141.58708,97,,,,,,,,,5.63
JAPAN,MIYAGI,"Miyagi Prefecture, Tohoku Region",38.41772,141.33617,91,,,,,,,,,5.63
JAPAN,MIYAGI,"Miyagi Prefecture, Tohoku Region",37.96967,140.90717,133,,,,,,,,,5.64
JAPAN,MIYAGI,"Miyagi Prefecture, Tohoku Region",38.42113,141.24623,99,,,,,,,,,5.65
JAPAN,MIYAGI,"Miyagi Prefecture, Tohoku Region",38.37539,141.15733,106,,,,,,,,,5.65
JAPAN,MIYAGI,"Miyagi Prefecture, Tohoku Region",38.83689,141.62131,89,,,,,,,,,11.18
JAPAN,MIYAGI,"Miyagi Prefecture, Tohoku Region",38.85202,141.61984,90,,,,,,,,,13.19
JAPAN,MIYAGI,"Miyagi Prefecture, Tohoku Region",38.86464,141.61899,91,,,,,,,,,16.16
JAPAN,MIYAGI,"Miyagi Prefecture, Tohoku Region",38.82465,141.56514,92,,,,,,,,,17.29
JAPAN,MIYAGI,"Miyagi Prefecture, Tohoku Region",38.75212,141.51196,90,,,,,,,,,17.68
JAPAN,MIYAGI,"Miyagi Prefecture, Tohoku Region",38.79523,141.5232,92,,,,,,,,,19.66
JAPAN,MIYAGI,"Miyagi Prefecture, Tohoku Region",38.75261,141.52479,90,,,,,,,,,21.01
JAPAN,MIYAGI,"Miyagi Prefecture, Tohoku Region",38.40894,141.26472,97,,,,,,,,,11.52
JAPAN,MIYAGI,"Miyagi Prefecture, Tohoku Region",38.32904,141.5255,74,,,,,,,,,13.73
JAPAN,MIYAGI,"Miyagi Prefecture, Tohoku Region",38.27336,141.02397,118,,,,,,,,,6.95
JAPAN,MIYAGI,"Miyagi Prefecture, Tohoku Region",38.41553,141.20428,103,,,,,,,,,3.36
JAPAN,MIYAGI,"Miyagi Prefecture, Tohoku Region",38.35206,141.46311,80,,,,,,,,,8.5
JAPAN,MIYAGI,"Miyagi Prefecture, Tohoku Region",38.91858,141.5875,97,,,,,,,,,5.67
JAPAN,MIYAGI,"Miyagi Prefecture, Tohoku Region",38.40978,141.24433,99,,,,,,,,,5.73
JAPAN,MIYAGI,"Miyagi Prefecture, Tohoku Region",37.98814,140.90642,133,,,,,,,,,5.8
JAPAN,MIYAGI,"Miyagi Prefecture, Tohoku Region",38.90539,141.57236,97,,,,,,,,,5.82
JAPAN,MIYAGI,"Miyagi Prefecture, Tohoku Region",38.10219,140.92542,128,,,,,,,,,5.83
JAPAN,MIYAGI,"Miyagi Prefecture, Tohoku Region",38.91575,141.58817,97,,,,,,,,,5.84
JAPAN,MIYAGI,"Miyagi Prefecture, Tohoku Region",38.42964,141.31091,94,,,,,,,,,5.85
JAPAN,MIYAGI,"Miyagi Prefecture, Tohoku Region",38.90097,141.56578,97,,,,,,,,,5.86
JAPAN,MIYAGI,"Miyagi Prefecture, Tohoku Region",38.10999,140.92634,128,,,,,,,,,3.8
JAPAN,MIYAGI,"Miyagi Prefecture, Tohoku Region",38.19975,140.95925,124,,,,,,,,,3.8
JAPAN,MIYAGI,"Miyagi Prefecture, Tohoku Region",38.12169,140.91644,129,,,,,,,,,3.8
JAPAN,MIYAGI,"Miyagi Prefecture, Tohoku Region",37.96556,140.89636,134,,,,,,,,,3.81
JAPAN,MIYAGI,"Miyagi Prefecture, Tohoku Region",38.28733,141.04156,116,,,,,,,,,3.83
JAPAN,MIYAGI,"Miyagi Prefecture, Tohoku Region",38.31914,141.02833,117,,,,,,,,,3.85
JAPAN,MIYAGI,"Miyagi Prefecture, Tohoku Region",38.86922,141.57925,94,,,,,,,,,8.91
JAPAN,MIYAGI,"Miyagi Prefecture, Tohoku Region",38.71769,141.50842,89,,,,,,,,,12.49
JAPAN,MIYAGI,"Miyagi Prefecture, Tohoku Region",38.64789,141.42906,91,,,,,,,,,12.5
JAPAN,MIYAGI,"Miyagi Prefecture, Tohoku Region",38.11222,140.9305,128,,,,,,,,,7.05
JAPAN,MIYAGI,"Miyagi Prefecture, Tohoku Region",38.431,141.27375,97,,,,,,,,,2.67
JAPAN,MIYAGI,"Miyagi Prefecture, Tohoku Region",38.20457,140.92753,127,,,,,,,,,2.41
JAPAN,MIYAGI,"Miyagi Prefecture, Tohoku Region",38.29778,141.01861,118,,,,,,,,,2.5
JAPAN,MIYAGI,"Miyagi Prefecture, Tohoku Region",38.42579,141.32442,93,,,,,,,,,2.59
JAPAN,MIYAGI,"Miyagi Prefecture, Tohoku Region",38.06768,140.92185,129,,,,,,,,,2.6
JAPAN,MIYAGI,"Miyagi Prefecture, Tohoku Region",38.4696,141.2943,96,,,,,,,,,2.61
JAPAN,MIYAGI,"Miyagi Prefecture, Tohoku Region",38.07517,140.91831,130,,,,,,,,,7.41
JAPAN,MIYAGI,"Miyagi Prefecture, Tohoku Region",38.94906,141.63572,97,,,,,,,,,12.14
JAPAN,MIYAGI,"Miyagi Prefecture, Tohoku Region",38.19917,140.93569,126,,,,,,,,,4.43
JAPAN,MIYAGI,"Miyagi Prefecture, Tohoku Region",38.88414,141.64428,91,,,,,,,,,13.46
JAPAN,MIYAGI,"Miyagi Prefecture, Tohoku Region",38.89758,141.59031,95,,,,,,,,,6.26
JAPAN,MIYAGI,"Miyagi Prefecture, Tohoku Region",38.90369,141.64875,92,,,,,,,,,14.55
JAPAN,MIYAGI,"Miyagi Prefecture, Tohoku Region",38.16678,140.95631,125,,,,,,,,,8
JAPAN,MIYAGI,"Miyagi Prefecture, Tohoku Region",38.42114,141.27753,97,,,,,,,,,5.02
JAPAN,MIYAGI,"Miyagi Prefecture, Tohoku Region",38.71511,141.51964,88,,,,,,,,,9.55
JAPAN,MIYAGI,"Miyagi Prefecture, Tohoku Region",38.80733,141.55169,91,,,,,,,,,17.12
JAPAN,MIYAGI,"Miyagi Prefecture, Tohoku Region",37.91642,140.90503,135,,,,,,,,,12.8
JAPAN,MIYAGI,"Miyagi Prefecture, Tohoku Region",38.43947,141.43958,83,,,,,,,,,20.07
JAPAN,MIYAGI,"Miyagi Prefecture, Tohoku Region",38.29094,140.98448,121,,,,,,,,,3.3
JAPAN,MIYAGI,"Miyagi Prefecture, Tohoku Region",38.89884,141.56351,97,,,,,,,,,3.31
JAPAN,MIYAGI,"Miyagi Prefecture, Tohoku Region",38.8927,141.56194,97,,,,,,,,,3.46
JAPAN,MIYAGI,"Miyagi Prefecture, Tohoku Region",38.89924,141.5651,97,,,,,,,,,3.46
JAPAN,MIYAGI,"Miyagi Prefecture, Tohoku Region",38.28,140.98523,121,,,,,,,,,3.48
JAPAN,MIYAGI,"Miyagi Prefecture, Tohoku Region",38.32435,141.0259,118,,,,,,,,,3.61
JAPAN,MIYAGI,"Miyagi Prefecture, Tohoku Region",38.3061,141.02941,117,,,,,,,,,3.68
JAPAN,MIYAGI,"Miyagi Prefecture, Tohoku Region",38.44328,141.48844,79,,,,,,,,,9.22
JAPAN,MIYAGI,"Miyagi Prefecture, Tohoku Region",38.8847,141.57667,95,,,,,,,,,7.06
JAPAN,MIYAGI,"Miyagi Prefecture, Tohoku Region",38.91046,141.58223,97,,,,,,,,,7.31
JAPAN,MIYAGI,"Miyagi Prefecture, Tohoku Region",38.33505,141.15424,106,,,,,,,,,7.47
JAPAN,MIYAGI,"Miyagi Prefecture, Tohoku Region",38.29832,141.05537,115,,,,,,,,,7.53
JAPAN,MIYAGI,"Miyagi Prefecture, Tohoku Region",37.90307,140.91539,135,,,,,,,,,7.61
JAPAN,MIYAGI,"Miyagi Prefecture, Tohoku Region",38.28718,141.0032,120,,,,,,,,,3.85
JAPAN,MIYAGI,"Miyagi Prefecture, Tohoku Region",38.30748,141.06839,114,,,,,,,,,3.86
JAPAN,MIYAGI,"Miyagi Prefecture, Tohoku Region",38.88636,141.55508,97,,,,,,,,,4.69
JAPAN,MIYAGI,"Miyagi Prefecture, Tohoku Region",38.24965,141.00304,120,,,,,,,,,3.6
JAPAN,MIYAGI,"Miyagi Prefecture, Tohoku Region",38.90011,141.58142,96,,,,,,,,,11.2
JAPAN,MIYAGI,"Miyagi Prefecture, Tohoku Region",38.28983,141.06569,114,,,,,,,,,8.8
JAPAN,MIYAGI,"Miyagi Prefecture, Tohoku Region",37.97317,140.91108,133,,,,,,,,,3.92
JAPAN,MIYAGI,"Miyagi Prefecture, Tohoku Region",38.35161,141.15714,106,,,,,,,,,6
JAPAN,MIYAGI,"Miyagi Prefecture, Tohoku Region",38.36686,141.15775,106,,,,,,,,,6.4
JAPAN,MIYAGI,"Miyagi Prefecture, Tohoku Region",38.61078,141.51878,82,,,,,,,,,13.36
JAPAN,MIYAGI,"Miyagi Prefecture, Tohoku Region",38.7925,141.50169,94,,,,,,,,,13.4
JAPAN,MIYAGI,"Miyagi Prefecture, Tohoku Region",38.70883,141.55836,84,,,,,,,,,13.49
JAPAN,MIYAGI,"Miyagi Prefecture, Tohoku Region",38.68836,141.43756,92,,,,,,,,,14.25
JAPAN,MIYAGI,"Miyagi Prefecture, Tohoku Region",38.24872,141.00658,119,,,,,,,,,14.44
JAPAN,MIYAGI,"Miyagi Prefecture, Tohoku Region",38.07261,140.92311,129,,,,,,,,,14.45
JAPAN,MIYAGI,"Miyagi Prefecture, Tohoku Region",38.68078,141.47086,89,,,,,,,,,14.68
JAPAN,MIYAGI,"Miyagi Prefecture, Tohoku Region",38.39742,141.59075,69,,,,,,,,,14.8
JAPAN,MIYAGI,"Miyagi Prefecture, Tohoku Region",37.91761,140.91261,135,,,,,,,,,9.62
JAPAN,MIYAGI,"Miyagi Prefecture, Tohoku Region",38.88911,141.59289,95,,,,,,,,,9.82
JAPAN,MIYAGI,"Miyagi Prefecture, Tohoku Region",38.25922,141.00481,120,,,,,,,,,10
JAPAN,MIYAGI,"Miyagi Prefecture, Tohoku Region",38.39986,141.40156,86,,,,,,,,,10.14
JAPAN,MIYAGI,"Miyagi Prefecture, Tohoku Region",38.85869,141.58439,93,,,,,,,,,10.24
JAPAN,MIYAGI,"Miyagi Prefecture, Tohoku Region",38.89717,141.63411,93,,,,,,,,,10.29
JAPAN,MIYAGI,"Miyagi Prefecture, Tohoku Region",38.64242,141.48042,87,,,,,,,,,10.34
JAPAN,MIYAGI,"Miyagi Prefecture, Tohoku Region",38.32083,141.47142,79,,,,,,,,,9.07
JAPAN,MIYAGI,"Miyagi Prefecture, Tohoku Region",38.91154,141.581,97,,,,,,,,,9.17
JAPAN,MIYAGI,"Miyagi Prefecture, Tohoku Region",38.83319,141.59442,90,,,,,,,,,9.19
JAPAN,MIYAGI,"Miyagi Prefecture, Tohoku Region",38.08319,140.92519,129,,,,,,,,,5.78
JAPAN,MIYAGI,"Miyagi Prefecture, Tohoku Region",38.55806,141.42483,88,,,,,,,,,8.6
JAPAN,MIYAGI,"Miyagi Prefecture, Tohoku Region",38.695,141.49553,88,,,,,,,,,15.74
JAPAN,MIYAGI,"Miyagi Prefecture, Tohoku Region",38.84464,141.61514,90,,,,,,,,,7.83
JAPAN,MIYAGI,"Miyagi Prefecture, Tohoku Region",38.13033,140.905,130,,,,,,,,,3.04
JAPAN,MIYAGI,"Miyagi Prefecture, Tohoku Region",38.25197,140.99033,121,,,,,,,,,3.87
JAPAN,MIYAGI,"Miyagi Prefecture, Tohoku Region",37.90756,140.90092,136,,,,,,,,,9.93
JAPAN,MIYAGI,"Miyagi Prefecture, Tohoku Region",38.83836,141.587,91,,,,,,,,,7.05
JAPAN,MIYAGI,"Miyagi Prefecture, Tohoku Region",38.68547,141.44206,92,,,,,,,,,12.61
JAPAN,MIYAGI,"Miyagi Prefecture, Tohoku Region",38.01333,140.87711,135,,,,,,,,,1.54
JAPAN,MIYAGI,"Miyagi Prefecture, Tohoku Region",38.43936,141.44244,83,,,,,,,,,19.69
JAPAN,MIYAGI,"Miyagi Prefecture, Tohoku Region",38.34308,141.14939,107,,,,,,,,,0.64
JAPAN,MIYAGI,"Miyagi Prefecture, Tohoku Region",38.43097,141.26575,98,,,,,,,,,1.42
JAPAN,MIYAGI,"Miyagi Prefecture, Tohoku Region",38.29666,141.05251,115,,,,,,,,,3.83
JAPAN,MIYAGI,"Miyagi Prefecture, Tohoku Region",38.11575,140.89272,131,,,,,,,,,1.57
JAPAN,MIYAGI,"Miyagi Prefecture, Tohoku Region",38.94214,141.64006,96,,,,,,,,,11.75
JAPAN,MIYAGI,"Miyagi Prefecture, Tohoku Region",38.57825,141.45722,86,,,,,,,,,14.9
JAPAN,MIYAGI,"Miyagi Prefecture, Tohoku Region",38.38083,141.48738,78,,,,,,,,,15.03
JAPAN,MIYAGI,"Miyagi Prefecture, Tohoku Region",38.4298,141.37007,89,,,,,,,,,0.93
JAPAN,MIYAGI,"Miyagi Prefecture, Tohoku Region",38.43353,141.30331,95,,,,,,,,,1.51
JAPAN,MIYAGI,"Miyagi Prefecture, Tohoku Region",38.86387,141.61879,91,,,,,,,,,15.9
JAPAN,MIYAGI,"Miyagi Prefecture, Tohoku Region",38.139,140.93531,127,,,,,,,,,4.5
JAPAN,MIYAGI,"Miyagi Prefecture, Tohoku Region",38.37119,141.48383,78,,,,,,,,,20.68
JAPAN,MIYAGI,"Miyagi Prefecture, Tohoku Region",38.13833,140.932,127,,,,,,,,,5.2
JAPAN,MIYAGI,"Miyagi Prefecture, Tohoku Region",38.21319,140.93494,126,,,,,,,,,2.69
JAPAN,MIYAGI,"Miyagi Prefecture, Tohoku Region",38.39675,141.18131,105,,,,,,,,,3.95
JAPAN,MIYAGI,"Miyagi Prefecture, Tohoku Region",38.02178,140.90594,132,,,,,,,,,4.12
JAPAN,MIYAGI,"Miyagi Prefecture, Tohoku Region",38.0835,140.91858,129,,,,,,,,,4.22
JAPAN,MIYAGI,"Miyagi Prefecture, Tohoku Region",38.39211,141.17686,105,,,,,,,,,4.25
JAPAN,MIYAGI,"Miyagi Prefecture, Tohoku Region",38.39208,141.17978,105,,,,,,,,,4.41
JAPAN,MIYAGI,"Miyagi Prefecture, Tohoku Region",38.42472,141.31492,93,,,,,,,,,4.54
JAPAN,MIYAGI,"Miyagi Prefecture, Tohoku Region",38.0385,140.90533,132,,,,,,,,,4.8
JAPAN,MIYAGI,"Miyagi Prefecture, Tohoku Region",38.17747,140.94533,125,,,,,,,,,4.19
JAPAN,MIYAGI,"Miyagi Prefecture, Tohoku Region",38.88331,141.57735,95,,,,,,,,,6
JAPAN,MIYAGI,"Miyagi Prefecture, Tohoku Region",38.27243,140.99798,120,,,,,,,,,6.04
JAPAN,MIYAGI,"Miyagi Prefecture, Tohoku Region",38.33597,141.14978,107,,,,,,,,,6.41
JAPAN,MIYAGI,"Miyagi Prefecture, Tohoku Region",38.1305,140.92483,128,,,,,,,,,2.6
JAPAN,MIYAGI,"Miyagi Prefecture, Tohoku Region",38.42217,141.27061,97,,,,,,,,,5.3
JAPAN,MIYAGI,"Miyagi Prefecture, Tohoku Region",38.2015,140.95947,124,,,,,,,,,3.11
JAPAN,MIYAGI,"Miyagi Prefecture, Tohoku Region",38.71954,141.52769,87,,,,,,,,,13.11
JAPAN,MIYAGI,"Miyagi Prefecture, Tohoku Region",38.06057,140.90213,131,,,,,,,,,2.4
JAPAN,MIYAGI,"Miyagi Prefecture, Tohoku Region",38.90706,141.56835,97,,,,,,,,,5.75
JAPAN,MIYAGI,"Miyagi Prefecture, Tohoku Region",37.92211,140.89106,136,,,,,,,,,5.85
JAPAN,MIYAGI,"Miyagi Prefecture, Tohoku Region",37.96739,140.90153,134,,,,,,,,,5.57
JAPAN,MIYAGI,"Miyagi Prefecture, Tohoku Region",38.24469,140.99906,120,,,,,,,,,6.04
JAPAN,MIYAGI,"Miyagi Prefecture, Tohoku Region",38.26244,140.99931,120,,,,,,,,,6.06
JAPAN,MIYAGI,"Miyagi Prefecture, Tohoku Region",38.43405,141.35317,90,,,,,,,,,1.91
JAPAN,MIYAGI,"Miyagi Prefecture, Tohoku Region",38.74106,141.53406,88,,,,,,,,,13.98
JAPAN,MIYAGI,"Miyagi Prefecture, Tohoku Region",38.41363,141.19564,104,,,,,,,,,2.37
JAPAN,MIYAGI,"Miyagi Prefecture, Tohoku Region",38.4589,141.28763,96,,,,,,,,,2.39
JAPAN,MIYAGI,"Miyagi Prefecture, Tohoku Region",38.4329,141.31671,93,,,,,,,,,2.41
JAPAN,MIYAGI,"Miyagi Prefecture, Tohoku Region",38.67378,141.44506,91,,,,,,,,,14.32
JAPAN,MIYAGI,"Miyagi Prefecture, Tohoku Region",38.48864,141.48856,80,,,,,,,,,14.36
JAPAN,MIYAGI,"Miyagi Prefecture, Tohoku Region",38.43719,141.45292,82,,,,,,,,,17.99
JAPAN,MIYAGI,"Miyagi Prefecture, Tohoku Region",38.64306,141.45361,89,,,,,,,,,18
JAPAN,MIYAGI,"Miyagi Prefecture, Tohoku Region",38.777,141.51378,92,,,,,,,,,18.11
JAPAN,MIYAGI,"Miyagi Prefecture, Tohoku Region",38.75108,141.52894,89,,,,,,,,,18.52
JAPAN,MIYAGI,"Miyagi Prefecture, Tohoku Region",38.69253,141.49236,88,,,,,,,,,18.64
JAPAN,MIYAGI,"Miyagi Prefecture, Tohoku Region",38.73283,141.53833,87,,,,,,,,,18.73
JAPAN,MIYAGI,"Miyagi Prefecture, Tohoku Region",38.74897,141.52942,89,,,,,,,,,18.75
JAPAN,MIYAGI,"Miyagi Prefecture, Tohoku Region",38.43883,141.44111,83,,,,,,,,,19.05
JAPAN,MIYAGI,"Miyagi Prefecture, Tohoku Region",38.75031,141.52858,89,,,,,,,,,19.07
JAPAN,MIYAGI,"Miyagi Prefecture, Tohoku Region",38.74192,141.53322,88,,,,,,,,,19.57
JAPAN,MIYAGI,"Miyagi Prefecture, Tohoku Region",38.19719,140.96564,123,,,,,,,,,19.7
JAPAN,MIYAGI,"Miyagi Prefecture, Tohoku Region",38.94517,141.637,96,,,,,,,,,19.91